{
  "type": "FeatureCollection",
  "features": [
    {
      "type": "Feature",
      "properties": {
        "norad_id": 66909,
        "name": "SILVERSAT",
        "group": "stations",
        "lat": 40.90023574925128,
        "lon": -130.9366548921424,
        "alt_km": 405.1270028929248,
        "timestamp": "2025-12-22T18:58:52.172595+00:00",
        "meta_object_name": "SILVERSAT",
        "meta_object_id": "1998-067XV",
        "meta_epoch": "2025-12-22T06:05:47.770368",
        "meta_mean_motion": 15.52855909,
        "meta_eccentricity": 0.00038121,
        "meta_inclination": 51.6306,
        "meta_ra_of_asc_node": 95.0749,
        "meta_arg_of_pericenter": 288.8858,
        "meta_mean_anomaly": 71.1718,
        "meta_ephemeris_type": 0,
        "meta_classification_type": "U",
        "meta_norad_cat_id": 66909,
        "meta_element_set_no": 999,
        "meta_rev_at_epoch": 309,
        "meta_bstar": 0.0012357429,
        "meta_mean_motion_dot": 0.00078426,
        "meta_mean_motion_ddot": 0,
        "tle_line1": "1 66909U 98067XV  25356.25402512  .00078426  00000+0  12357-2 0  9998",
        "tle_line2": "2 66909  51.6306  95.0749 0003812 288.8858  71.1718 15.52855909  3094"
      },
      "geometry": {
        "type": "Point",
        "coordinates": [
          -130.9366548921424,
          40.90023574925128
        ]
      }
    },
    {
      "type": "Feature",
      "properties": {
        "norad_id": 66910,
        "name": "1998-067XW",
        "group": "stations",
        "lat": 34.92403796504399,
        "lon": -121.20811058076674,
        "alt_km": 405.4206982755877,
        "timestamp": "2025-12-22T18:58:52.172610+00:00",
        "meta_object_name": "1998-067XW",
        "meta_object_id": "1998-067XW",
        "meta_epoch": "2025-12-21T16:09:10.415808",
        "meta_mean_motion": 15.52740161,
        "meta_eccentricity": 0.00040642,
        "meta_inclination": 51.6307,
        "meta_ra_of_asc_node": 97.9437,
        "meta_arg_of_pericenter": 256.0944,
        "meta_mean_anomaly": 103.9594,
        "meta_ephemeris_type": 0,
        "meta_classification_type": "U",
        "meta_norad_cat_id": 66910,
        "meta_element_set_no": 999,
        "meta_rev_at_epoch": 300,
        "meta_bstar": 0.00090790144,
        "meta_mean_motion_dot": 0.000571,
        "meta_mean_motion_ddot": 0,
        "tle_line1": "1 66910U 98067XW  25355.67303722  .00057100  00000+0  90790-3 0  9992",
        "tle_line2": "2 66910  51.6307  97.9437 0004064 256.0944 103.9594 15.52740161  3005"
      },
      "geometry": {
        "type": "Point",
        "coordinates": [
          -121.20811058076674,
          34.92403796504399
        ]
      }
    },
    {
      "type": "Feature",
      "properties": {
        "norad_id": 66911,
        "name": "1998-067XX",
        "group": "stations",
        "lat": 22.781661097270785,
        "lon": -107.09327641185058,
        "alt_km": 405.5181415637662,
        "timestamp": "2025-12-22T18:58:52.172620+00:00",
        "meta_object_name": "1998-067XX",
        "meta_object_id": "1998-067XX",
        "meta_epoch": "2025-12-21T12:59:52.344384",
        "meta_mean_motion": 15.53156659,
        "meta_eccentricity": 0.0003822,
        "meta_inclination": 51.6308,
        "meta_ra_of_asc_node": 98.5657,
        "meta_arg_of_pericenter": 260.7512,
        "meta_mean_anomaly": 99.3046,
        "meta_ephemeris_type": 0,
        "meta_classification_type": "U",
        "meta_norad_cat_id": 66911,
        "meta_element_set_no": 999,
        "meta_rev_at_epoch": 297,
        "meta_bstar": 0.00097482,
        "meta_mean_motion_dot": 0.00062319,
        "meta_mean_motion_ddot": 0,
        "tle_line1": "1 66911U 98067XX  25355.54157806  .00062319  00000+0  97482-3 0  9992",
        "tle_line2": "2 66911  51.6308  98.5657 0003822 260.7512  99.3046 15.53156659  2971"
      },
      "geometry": {
        "type": "Point",
        "coordinates": [
          -107.09327641185058,
          22.781661097270785
        ]
      }
    },
    {
      "type": "Feature",
      "properties": {
        "norad_id": 66912,
        "name": "1998-067XY",
        "group": "stations",
        "lat": 51.60700423687215,
        "lon": -178.5839647806897,
        "alt_km": 406.32347430258596,
        "timestamp": "2025-12-22T18:58:52.172630+00:00",
        "meta_object_name": "1998-067XY",
        "meta_object_id": "1998-067XY",
        "meta_epoch": "2025-12-21T11:41:25.287072",
        "meta_mean_motion": 15.51934859,
        "meta_eccentricity": 0.0004003,
        "meta_inclination": 51.6317,
        "meta_ra_of_asc_node": 98.9521,
        "meta_arg_of_pericenter": 271.7448,
        "meta_mean_anomaly": 88.3083,
        "meta_ephemeris_type": 0,
        "meta_classification_type": "U",
        "meta_norad_cat_id": 66912,
        "meta_element_set_no": 999,
        "meta_rev_at_epoch": 296,
        "meta_bstar": 0.00071547257,
        "meta_mean_motion_dot": 0.0004353,
        "meta_mean_motion_ddot": 0,
        "tle_line1": "1 66912U 98067XY  25355.48709823  .00043530  00000+0  71547-3 0  9996",
        "tle_line2": "2 66912  51.6317  98.9521 0004003 271.7448  88.3083 15.51934859  2960"
      },
      "geometry": {
        "type": "Point",
        "coordinates": [
          -178.5839647806897,
          51.60700423687215
        ]
      }
    }
  ]
}